{"fetched_at":"2026-07-07T18:29:38.360Z","source":"https://celestrak.org/NORAD/elements/gp.php?NAME=NUSAT&FORMAT=JSON","constellation":"satellogic","records":[{"OBJECT_NAME":"NUSAT-47","OBJECT_ID":"2025-276CF","EPOCH":"2026-07-06T17:04:10.292736","CLASSIFICATION_TYPE":"U","MEAN_MOTION":15.20522231,"ECCENTRICITY":0.0000434,"INCLINATION":97.4177,"RA_OF_ASC_NODE":261.0119,"ARG_OF_PERICENTER":356.7067,"MEAN_ANOMALY":3.4166,"EPHEMERIS_TYPE":0,"NORAD_CAT_ID":66743,"ELEMENT_SET_NO":999,"REV_AT_EPOCH":3339,"BSTAR":0.00019403,"MEAN_MOTION_DOT":0.00004174,"MEAN_MOTION_DDOT":0},{"OBJECT_NAME":"NUSAT-53 (JANE GOODALL)","OBJECT_ID":"2026-067S","EPOCH":"2026-07-07T08:40:50.917152","CLASSIFICATION_TYPE":"U","MEAN_MOTION":15.18795674,"ECCENTRICITY":0.0001535,"INCLINATION":97.4566,"RA_OF_ASC_NODE":146.5845,"ARG_OF_PERICENTER":13.7623,"MEAN_ANOMALY":346.3653,"EPHEMERIS_TYPE":0,"NORAD_CAT_ID":68432,"ELEMENT_SET_NO":999,"REV_AT_EPOCH":1500,"BSTAR":0.00021422,"MEAN_MOTION_DOT":0.00004388,"MEAN_MOTION_DDOT":0},{"OBJECT_NAME":"NUSAT-54 (BRANCA MARQUES)","OBJECT_ID":"2026-067AC","EPOCH":"2026-07-07T08:22:27.482016","CLASSIFICATION_TYPE":"U","MEAN_MOTION":15.17946101,"ECCENTRICITY":0.0004706,"INCLINATION":97.455,"RA_OF_ASC_NODE":146.4267,"ARG_OF_PERICENTER":25.4638,"MEAN_ANOMALY":334.6827,"EPHEMERIS_TYPE":0,"NORAD_CAT_ID":68442,"ELEMENT_SET_NO":999,"REV_AT_EPOCH":1499,"BSTAR":0.00019059,"MEAN_MOTION_DOT":0.00003802,"MEAN_MOTION_DDOT":0}]}
