NUSAT-47                
1 66743U 25276CF  26187.71123024  .00004174  00000+0  19403-3 0  9997
2 66743  97.4177 261.0119 0000434 356.7067   3.4166 15.20522231 33399
NUSAT-53 (JANE GOODALL) 
1 68432U 26067S   26188.36170043  .00004388  00000+0  21422-3 0  9999
2 68432  97.4566 146.5845 0001535  13.7623 346.3653 15.18795674 15000
NUSAT-54 (BRANCA MARQU*)
1 68442U 26067AC  26188.34892919  .00003802  00000+0  19059-3 0  9994
2 68442  97.4550 146.4267 0004706  25.4638 334.6827 15.17946101 14992
